*******************************************************************************
Ephemeris / PORT_LOGIN Tue Sep  8 16:13:11 2015 Pasadena, USA    / Horizons    
*******************************************************************************
Target body name: Himalia (506)                   {source: JUP300}
Center body name: Jupiter (599)                   {source: JUP310}
Center-site name: BODY CENTER
*******************************************************************************
Start time      : A.D. 1900-Jan-01 00:00:00.0000 CT 
Stop  time      : A.D. 2099-Dec-31 00:00:00.0000 CT 
Step-size       : 14400 minutes
*******************************************************************************
Center geodetic : 0.00000000,0.00000000,0.0000000 {E-lon(deg),Lat(deg),Alt(km)}
Center cylindric: 0.00000000,0.00000000,0.0000000 {E-lon(deg),Dxy(km),Dz(km)}
Center radii    : 71492.0 x 71492.0 x 66854.0 km  {Equator, meridian, pole}    
Output units    : AU-D                                                         
Output format   : 03
Reference frame : ICRF/J2000.0                                                 
Output type     : GEOMETRIC cartesian states
Coordinate systm: Ecliptic and Mean Equinox of Reference Epoch                 
*******************************************************************************
JDCT 
   X     Y     Z
   VX    VY    VZ
   LT    RG    RR
*******************************************************************************
$$SOE
2474230.500000000 = A.D. 2062-Feb-10 00:00:00.0000 (CT)
   4.066066604034504E-02 -7.307081489281532E-02 -3.347262617097729E-02
   1.421128624403329E-03  5.994404273397311E-04  4.707949586476933E-04
   5.202152209696380E-04  9.007247334633675E-02 -1.972087249494952E-05
2474240.500000000 = A.D. 2062-Feb-20 00:00:00.0000 (CT)
   5.400474630836459E-02 -6.571433842617938E-02 -2.814455265389133E-02
   1.238929014576237E-03  8.674001815816135E-04  5.916573527870276E-04
   5.174491433807848E-04  8.959354185826630E-02 -7.527901381963216E-05
2474250.500000000 = A.D. 2062-Mar-02 00:00:00.0000 (CT)
   6.524589646717235E-02 -5.581066111628921E-02 -2.170819120496421E-02
   1.000358436355964E-03  1.107817748576032E-03  6.918715306957028E-04
   5.114873662079403E-04  8.856129213958848E-02 -1.307347394526297E-04
2474260.500000000 = A.D. 2062-Mar-12 00:00:00.0000 (CT)
   7.385109113334763E-02 -4.367382294987861E-02 -1.438834354950984E-02
   7.114261624094095E-04  1.312766386741154E-03  7.676362815688002E-04
   5.024505407648119E-04  8.699661431769677E-02 -1.820639005189215E-04
2474270.500000000 = A.D. 2062-Mar-22 00:00:00.0000 (CT)
   7.930595110435652E-02 -2.970318078028994E-02 -6.453079385802450E-03
   3.713938933931158E-04  1.473595016655725E-03  8.140825729088011E-04
   4.905232777532598E-04  8.493147274475253E-02 -2.304216807256090E-04
2474280.500000000 = A.D. 2062-Apr-01 00:00:00.0000 (CT)
   8.111387105270869E-02 -1.440132338456621E-02  1.775052762741908E-03
  -1.695369772628763E-05  1.576014166106616E-03  8.250628138021481E-04
   4.759114369544794E-04  8.240151093695323E-02 -2.743558877969805E-04
2474290.500000000 = A.D. 2062-Apr-11 00:00:00.0000 (CT)
   7.884438008742450E-02  1.585541120290871E-03  9.906065430495541E-03
  -4.428653636376068E-04  1.607960419064134E-03  7.933226270892202E-04
   4.590385582912690E-04  7.948006255865463E-02 -3.083698106609675E-04
2474300.500000000 = A.D. 2062-Apr-21 00:00:00.0000 (CT)
   7.215295658285473E-02  1.744357936165069E-02  1.746990001716345E-02
  -8.974029235937275E-04  1.546693495770232E-03  7.101710898541251E-04
   4.404386578811932E-04  7.625958963437460E-02 -3.325979805102920E-04
2474310.500000000 = A.D. 2062-May-01 00:00:00.0000 (CT)
   6.088895535361773E-02  3.215470588431667E-02  2.391056253769679E-02
  -1.353601842455016E-03  1.373992822187911E-03  5.673636749688337E-04
   4.209835885526422E-04  7.289104880183074E-02 -3.384926248258924E-04
2474320.500000000 = A.D. 2062-May-11 00:00:00.0000 (CT)
   4.522058134127641E-02  4.449194909597376E-02  2.859984318125080E-02
  -1.769912265102394E-03  1.071380311087013E-03  3.595758419626930E-04
   4.019024454222034E-04  6.958725128350633E-02 -3.173692046808730E-04
2474330.500000000 = A.D. 2062-May-21 00:00:00.0000 (CT)
   2.580256981575424E-02  5.309638176419010E-02  3.089353891054222E-02
  -2.090893974039950E-03  6.272344759464505E-04  8.989971181098608E-05
   3.848163812036087E-04  6.662889097052926E-02 -2.681905108553547E-04
2474340.500000000 = A.D. 2062-May-31 00:00:00.0000 (CT)
   3.971396386489277E-03  5.666093046457103E-02  3.025522876638293E-02
  -2.241707095661141E-03  6.975805380180915E-05 -2.219044645774408E-04
   3.716855406459833E-04  6.435535640547521E-02 -1.812424359838952E-04
2474350.500000000 = A.D. 2062-Jun-10 00:00:00.0000 (CT)
  -1.826171037741805E-02  5.429533572198925E-02  2.644563266386895E-02
  -2.162901107273919E-03 -5.438376278072052E-04 -5.361078204288170E-04
   3.644001965155038E-04  6.309393817209789E-02 -6.668284772177747E-05
2474360.500000000 = A.D. 2062-Jun-20 00:00:00.0000 (CT)
  -3.847474741495643E-02  4.592313354800600E-02  1.970135098023908E-02
  -1.841338332136107E-03 -1.116062091225495E-03 -8.001053535009186E-04
   3.642417356277682E-04  6.306650151989769E-02  6.071055613415840E-05
2474370.500000000 = A.D. 2062-Jun-30 00:00:00.0000 (CT)
  -5.443828780362550E-02  3.245885766363740E-02  1.076170167186116E-02
  -1.328048062454654E-03 -1.547653651862186E-03 -9.697921264005310E-04
   3.712952602038180E-04  6.428778144167654E-02  1.808271997230824E-04
2474380.500000000 = A.D. 2062-Jul-10 00:00:00.0000 (CT)
  -6.472193971294148E-02  1.558254426008088E-02  6.760693141552113E-04
  -7.214897795969338E-04 -1.794089765628814E-03 -1.029217476871496E-03
   3.845039014914148E-04  6.657478678554332E-02  2.710322234080396E-04
2474390.500000000 = A.D. 2062-Jul-20 00:00:00.0000 (CT)
  -6.888619060875456E-02 -2.787715575364450E-03 -9.492958091192260E-03
  -1.183753588026238E-04 -1.851555908008514E-03 -9.902142561244117E-04
   4.019360297830948E-04  6.959306623533644E-02  3.264132827707846E-04
2474400.500000000 = A.D. 2062-Jul-30 00:00:00.0000 (CT)
  -6.732322312404442E-02 -2.094200740794479E-02 -1.888816890400181E-02
   4.163738873499825E-04 -1.757430779387419E-03 -8.791874000424258E-04
   4.215632675130231E-04  7.299141710249490E-02  3.476948029989267E-04
2474410.500000000 = A.D. 2062-Aug-09 00:00:00.0000 (CT)
  -6.088518239237883E-02 -3.759246720005325E-02 -2.692784132443927E-02
   8.542441887142959E-04 -1.558971492129850E-03 -7.232482032560766E-04
   4.415650118999872E-04  7.645461178721984E-02  3.409903430578038E-04
2474420.500000000 = A.D. 2062-Aug-19 00:00:00.0000 (CT)
  -5.059087886346620E-02 -5.188079369495878E-02 -3.327453724655272E-02
   1.187137258921109E-03 -1.290543653864226E-03 -5.435751564588894E-04
   4.605319009380886E-04  7.973862682269497E-02  3.133151972321706E-04
2474430.500000000 = A.D. 2062-Aug-29 00:00:00.0000 (CT)
  -3.746635637854386E-02 -6.328453200161654E-02 -3.777023457566672E-02
   1.421682844268486E-03 -9.854049048558986E-04 -3.549888120833420E-04
   4.774942909153989E-04  8.267557360459360E-02  2.721919166479518E-04
2474440.500000000 = A.D. 2062-Sep-08 00:00:00.0000 (CT)
  -2.244468570479446E-02 -7.153124099480729E-02 -4.037645976541675E-02
   1.568709929730251E-03 -6.618406438255194E-04 -1.669225392525592E-04
   4.917927912076476E-04  8.515128218548751E-02  2.216387347851896E-04
2474450.500000000 = A.D. 2062-Sep-18 00:00:00.0000 (CT)
  -6.373133272176069E-03 -7.650893283342823E-02 -4.113126246441197E-02
   1.633683278762320E-03 -3.337346147952340E-04  1.448531083477687E-05
   5.030345300009894E-04  8.709772891948042E-02  1.667804548507351E-04
2474460.500000000 = A.D. 2062-Sep-28 00:00:00.0000 (CT)
   9.997508961638875E-03 -7.822095949308351E-02 -4.012221168160486E-02
   1.628953230425781E-03 -1.056586421256261E-05  1.852653132147606E-04
   5.110031801259441E-04  8.847745791827527E-02  1.093916198488791E-04
2474470.500000000 = A.D. 2062-Oct-08 00:00:00.0000 (CT)
   2.599167012828445E-02 -7.675350351488222E-02 -3.747126304226320E-02
   1.559640368355622E-03  3.017529373639625E-04  3.424414472464939E-04
   5.156332428178257E-04  8.927912842231980E-02  5.091166735652681E-05
2474480.500000000 = A.D. 2062-Oct-18 00:00:00.0000 (CT)
   4.098023540958592E-02 -7.224906681220174E-02 -3.332776522986007E-02
   1.428225518361235E-03  5.952614020021376E-04  4.833201374831745E-04
   5.169023499179200E-04  8.949886750498992E-02 -6.548048403252635E-06
2474490.500000000 = A.D. 2062-Oct-28 00:00:00.0000 (CT)
   5.438801096746228E-02 -6.491601070248761E-02 -2.786719844111066E-02
   1.243325779934080E-03  8.674564455750136E-04  6.054069734408737E-04
   5.149199291232956E-04  8.915562198469888E-02 -6.237174832529914E-05
2474500.500000000 = A.D. 2062-Nov-07 00:00:00.0000 (CT)
   6.565613147996301E-02 -5.501469944813372E-02 -2.129357815551693E-02
   1.002495876988702E-03  1.108017590309345E-03  7.053958602207661E-04
   5.097777941483291E-04  8.826528891329696E-02 -1.150809747712916E-04
2474510.500000000 = A.D. 2062-Nov-17 00:00:00.0000 (CT)
   7.425713217237810E-02 -4.287596598587531E-02 -1.384505133198546E-02
   7.092701880103641E-04  1.311820051205846E-03  7.796201920844757E-04
   5.016447654079117E-04  8.685709863950833E-02 -1.654564060052891E-04
2474520.500000000 = A.D. 2062-Nov-27 00:00:00.0000 (CT)
   7.968983777022161E-02 -2.891905421761943E-02 -5.801972825685744E-03
   3.690926050885599E-04  1.471347791344652E-03  8.234873939531963E-04
   4.907642780570623E-04  8.497320065382878E-02 -2.108300978819110E-04
2474530.500000000 = A.D. 2062-Dec-07 00:00:00.0000 (CT)
   8.147891809476013E-02 -1.365922147095891E-02  2.503439794494913E-03
  -1.763597094594205E-05  1.569496348260491E-03  8.310278127279339E-04
   4.773687111048375E-04  8.265383013442265E-02 -2.515870095849535E-04
